[Satellite]
VERSION=1.1
NAME=CYGFM04
NICKNAME=CYGFM04
TLE1=1 41885U 16078B   19316.47175697  .00000359  00000-0  20469-4 0  9996
TLE2=2 41885  34.9507 328.2279 0014734 267.4615  92.4409 15.14994106161094
STATUS=0
